{
  "norad_id": 62394,
  "name": "CROCUBE",
  "history": [
    {
      "epoch": "2026-03-28T18:15:31.883616Z",
      "apogee_km": 440.6904067399946,
      "perigee_km": 435.4987557938057,
      "latitude_deg": -1.9475190216290207e-05,
      "longitude_deg": -109.15526824977802,
      "height_km": 440.52318846374135,
      "semi_major_axis_km": 6816.231581266899,
      "eccentricity": 0.00038083,
      "inclination_deg": 44.9746,
      "raan_deg": 350.9042,
      "arg_perigee_deg": 200.4738,
      "mean_anomaly_deg": 159.5998,
      "mean_motion_rev_day": 15.42716968
    },
    {
      "epoch": "2026-03-29T00:28:29.849088Z",
      "apogee_km": 440.64426013187494,
      "perigee_km": 435.4162598434632,
      "latitude_deg": 2.824432972270006e-05,
      "longitude_deg": 155.9006701453572,
      "height_km": 440.44909345652906,
      "semi_major_axis_km": 6816.167259987668,
      "eccentricity": 0.0003835,
      "inclination_deg": 44.9746,
      "raan_deg": 349.4569,
      "arg_perigee_deg": 202.0976,
      "mean_anomaly_deg": 157.9748,
      "mean_motion_rev_day": 15.42738805
    },
    {
      "epoch": "2026-03-30T02:53:32.006112Z",
      "apogee_km": 440.4739331014589,
      "perigee_km": 434.93524390980747,
      "latitude_deg": 4.312876619386743e-06,
      "longitude_deg": 112.40524080592506,
      "height_km": 440.13928635712074,
      "semi_major_axis_km": 6815.841588505633,
      "eccentricity": 0.00040631,
      "inclination_deg": 44.9745,
      "raan_deg": 343.3054,
      "arg_perigee_deg": 208.3386,
      "mean_anomaly_deg": 151.7282,
      "mean_motion_rev_day": 15.42849378
    },
    {
      "epoch": "2026-03-30T23:05:32.890272Z",
      "apogee_km": 440.384277084122,
      "perigee_km": 434.57423684970854,
      "latitude_deg": -1.0944541288940355e-06,
      "longitude_deg": 163.8670577881531,
      "height_km": 439.90175133220214,
      "semi_major_axis_km": 6815.616256966915,
      "eccentricity": 0.00042623,
      "inclination_deg": 44.9745,
      "raan_deg": 338.6005,
      "arg_perigee_deg": 213.4113,
      "mean_anomaly_deg": 146.6507,
      "mean_motion_rev_day": 15.42925891
    },
    {
      "epoch": "2026-03-31T02:12:00.396000Z",
      "apogee_km": 440.36861031017906,
      "perigee_km": 434.5136197746715,
      "latitude_deg": 1.8761697365061814e-05,
      "longitude_deg": 116.40104426446331,
      "height_km": 439.8617306510948,
      "semi_major_axis_km": 6815.578115042425,
      "eccentricity": 0.00042953,
      "inclination_deg": 44.9745,
      "raan_deg": 337.8767,
      "arg_perigee_deg": 214.1395,
      "mean_anomaly_deg": 145.9218,
      "mean_motion_rev_day": 15.42938843
    }
  ]
}